[{"OBJECT_NAME":"FOSSASAT-2E24","OBJECT_ID":"2025-276DV","EPOCH":"2026-03-09T18:37:38.318016","MEAN_MOTION":15.18161624,"ECCENTRICITY":0.000615,"INCLINATION":97.4247,"RA_OF_ASC_NODE":143.9285,"ARG_OF_PERICENTER":111.9769,"MEAN_ANOMALY":248.2119,"EPHEMERIS_TYPE":0,"CLASSIFICATION_TYPE":"U","NORAD_CAT_ID":66780,"ELEMENT_SET_NO":999,"REV_AT_EPOCH":1532,"BSTAR":0.00023488537,"MEAN_MOTION_DOT":4.733e-5,"MEAN_MOTION_DDOT":0},{"OBJECT_NAME":"OKEAN-2","OBJECT_ID":"1990-018A","EPOCH":"2026-03-09T23:36:10.183680","MEAN_MOTION":15.15649196,"ECCENTRICITY":0.00049727,"INCLINATION":82.5017,"RA_OF_ASC_NODE":331.5686,"ARG_OF_PERICENTER":303.4328,"MEAN_ANOMALY":67.9927,"EPHEMERIS_TYPE":0,"CLASSIFICATION_TYPE":"U","NORAD_CAT_ID":20510,"ELEMENT_SET_NO":999,"REV_AT_EPOCH":93903,"BSTAR":0.00028442133,"MEAN_MOTION_DOT":5.437e-5,"MEAN_MOTION_DDOT":0}]
